{"type": "FeatureCollection", "features": [{"type": "Feature", "properties": {"norad_id": 32275, "name": "COSMOS 2433 (720)", "group": "glo-ops", "lat": -23.201999680092133, "lon": -48.89287564220155, "alt_km": 19131.190369707045, "timestamp": "2025-12-10T05:46:14.082736+00:00", "meta": {"OBJECT_NAME": "COSMOS 2433 (720)", "OBJECT_ID": "2007-052A", "EPOCH": "2025-12-09T08:02:51.661824", "MEAN_MOTION": 2.13103784, "ECCENTRICITY": 0.0005582, "INCLINATION": 65.6852, "RA_OF_ASC_NODE": 322.3203, "ARG_OF_PERICENTER": 252.1603, "MEAN_ANOMALY": 107.7768, "EPHEMERIS_TYPE": 0, "CLASSIFICATION_TYPE": "U", "NORAD_CAT_ID": 32275, "ELEMENT_SET_NO": 999, "REV_AT_EPOCH": 14101, "BSTAR": 0, "MEAN_MOTION_DOT": -4.9e-07, "MEAN_MOTION_DDOT": 0}, "tle": {"line1": "1 32275U 07052A   25343.33532016 -.00000049  00000+0  00000+0 0  9995", "line2": "2 32275  65.6852 322.3203 0005582 252.1603 107.7768  2.13103784141019"}}, "geometry": {"type": "Point", "coordinates": [-48.89287564220155, -23.201999680092133]}}, {"type": "Feature", "properties": {"norad_id": 32276, "name": "COSMOS 2432 (719)", "group": "glo-ops", "lat": -64.2553849605537, "lon": -107.10375142249981, "alt_km": 19112.209317918565, "timestamp": "2025-12-10T05:46:14.082760+00:00", "meta": {"OBJECT_NAME": "COSMOS 2432 (719)", "OBJECT_ID": "2007-052B", "EPOCH": "2025-12-09T13:28:48.375264", "MEAN_MOTION": 2.13102958, "ECCENTRICITY": 0.00112506, "INCLINATION": 65.7007, "RA_OF_ASC_NODE": 322.4368, "ARG_OF_PERICENTER": 311.4097, "MEAN_ANOMALY": 166.6519, "EPHEMERIS_TYPE": 0, "CLASSIFICATION_TYPE": "U", "NORAD_CAT_ID": 32276, "ELEMENT_SET_NO": 999, "REV_AT_EPOCH": 14104, "BSTAR": 0, "MEAN_MOTION_DOT": -4.9e-07, "MEAN_MOTION_DDOT": 0}, "tle": {"line1": "1 32276U 07052B   25343.56167101 -.00000049  00000+0  00000+0 0  9990", "line2": "2 32276  65.7007 322.4368 0011250 311.4097 166.6519  2.13102958141044"}}, "geometry": {"type": "Point", "coordinates": [-107.10375142249981, -64.2553849605537]}}, {"type": "Feature", "properties": {"norad_id": 32393, "name": "COSMOS 2434 (721)", "group": "glo-ops", "lat": -39.55009383953433, "lon": 41.709426775444854, "alt_km": 19144.74515341492, "timestamp": "2025-12-10T05:46:14.082775+00:00", "meta": {"OBJECT_NAME": "COSMOS 2434 (721)", "OBJECT_ID": "2007-065A", "EPOCH": "2025-12-09T05:35:23.361792", "MEAN_MOTION": 2.13101149, "ECCENTRICITY": 0.00042885, "INCLINATION": 64.3147, "RA_OF_ASC_NODE": 198.3216, "ARG_OF_PERICENTER": 70.9906, "MEAN_ANOMALY": 101.028, "EPHEMERIS_TYPE": 0, "CLASSIFICATION_TYPE": "U", "NORAD_CAT_ID": 32393, "ELEMENT_SET_NO": 999, "REV_AT_EPOCH": 13972, "BSTAR": 0, "MEAN_MOTION_DOT": 4.5e-07, "MEAN_MOTION_DDOT": 0}, "tle": {"line1": "1 32393U 07065A   25343.23290928  .00000045  00000+0  00000+0 0  9997", "line2": "2 32393  64.3147 198.3216 0004288  70.9906 101.0280  2.13101149139726"}}, "geometry": {"type": "Point", "coordinates": [41.709426775444854, -39.55009383953433]}}, {"type": "Feature", "properties": {"norad_id": 32395, "name": "COSMOS 2436 (723)", "group": "glo-ops", "lat": -1.8576905841245677, "lon": -162.5324444002881, "alt_km": 19086.41580998669, "timestamp": "2025-12-10T05:46:14.082789+00:00", "meta": {"OBJECT_NAME": "COSMOS 2436 (723)", "OBJECT_ID": "2007-065C", "EPOCH": "2025-12-08T02:01:11.627904", "MEAN_MOTION": 2.13100022, "ECCENTRICITY": 0.00177472, "INCLINATION": 64.3236, "RA_OF_ASC_NODE": 198.4308, "ARG_OF_PERICENTER": 9.2257, "MEAN_ANOMALY": 134.6131, "EPHEMERIS_TYPE": 0, "CLASSIFICATION_TYPE": "U", "NORAD_CAT_ID": 32395, "ELEMENT_SET_NO": 999, "REV_AT_EPOCH": 13965, "BSTAR": 0, "MEAN_MOTION_DOT": 5.1e-07, "MEAN_MOTION_DDOT": 0}, "tle": {"line1": "1 32395U 07065C   25342.08416236  .00000051  00000+0  00000+0 0  9990", "line2": "2 32395  64.3236 198.4308 0017747   9.2257 134.6131  2.13100022139656"}}, "geometry": {"type": "Point", "coordinates": [-162.5324444002881, -1.8576905841245677]}}, {"type": "Feature", "properties": {"norad_id": 36111, "name": "COSMOS 2456 (730)", "group": "glo-ops", "lat": 19.86584127783717, "lon": 87.16679843063476, "alt_km": 19126.8742659527, "timestamp": "2025-12-10T05:46:14.082801+00:00", "meta": {"OBJECT_NAME": "COSMOS 2456 (730)", "OBJECT_ID": "2009-070A", "EPOCH": "2025-12-09T05:47:54.858624", "MEAN_MOTION": 2.13103359, "ECCENTRICITY": 0.00028383, "INCLINATION": 64.8981, "RA_OF_ASC_NODE": 77.4578, "ARG_OF_PERICENTER": 298.5783, "MEAN_ANOMALY": 37.1692, "EPHEMERIS_TYPE": 0, "CLASSIFICATION_TYPE": "U", "NORAD_CAT_ID": 36111, "ELEMENT_SET_NO": 999, "REV_AT_EPOCH": 12437, "BSTAR": 0, "MEAN_MOTION_DOT": -1.7e-07, "MEAN_MOTION_DDOT": 0}, "tle": {"line1": "1 36111U 09070A   25343.24160716 -.00000017  00000+0  00000+0 0  9999", "line2": "2 36111  64.8981  77.4578 0002838 298.5783  37.1692  2.13103359124373"}}, "geometry": {"type": "Point", "coordinates": [87.16679843063476, 19.86584127783717]}}, {"type": "Feature", "properties": {"norad_id": 36112, "name": "COSMOS 2457 (733)", "group": "glo-ops", "lat": 25.846915910434188, "lon": -115.83659273449301, "alt_km": 19114.749214538835, "timestamp": "2025-12-10T05:46:14.082813+00:00", "meta": {"OBJECT_NAME": "COSMOS 2457 (733)", "OBJECT_ID": "2009-070B", "EPOCH": "2025-12-08T14:21:11.818944", "MEAN_MOTION": 2.13100771, "ECCENTRICITY": 0.0004866, "INCLINATION": 64.883, "RA_OF_ASC_NODE": 77.3275, "ARG_OF_PERICENTER": 155.8932, "MEAN_ANOMALY": 175.3227, "EPHEMERIS_TYPE": 0, "CLASSIFICATION_TYPE": "U", "NORAD_CAT_ID": 36112, "ELEMENT_SET_NO": 999, "REV_AT_EPOCH": 12436, "BSTAR": 0, "MEAN_MOTION_DOT": -1.5e-07, "MEAN_MOTION_DDOT": 0}, "tle": {"line1": "1 36112U 09070B   25342.59805346 -.00000015  00000+0  00000+0 0  9990", "line2": "2 36112  64.8830  77.3275 0004866 155.8932 175.3227  2.13100771124367"}}, "geometry": {"type": "Point", "coordinates": [-115.83659273449301, 25.846915910434188]}}, {"type": "Feature", "properties": {"norad_id": 36402, "name": "COSMOS 2460 (732)", "group": "glo-ops", "lat": 26.484032483315914, "lon": 127.7372532094679, "alt_km": 19130.35220815354, "timestamp": "2025-12-10T05:46:14.082825+00:00", "meta": {"OBJECT_NAME": "COSMOS 2460 (732)", "OBJECT_ID": "2010-007C", "EPOCH": "2025-12-09T19:21:37.643616", "MEAN_MOTION": 2.13105924, "ECCENTRICITY": 0.0002788, "INCLINATION": 65.5316, "RA_OF_ASC_NODE": 320.8726, "ARG_OF_PERICENTER": 272.035, "MEAN_ANOMALY": 265.828, "EPHEMERIS_TYPE": 0, "CLASSIFICATION_TYPE": "U", "NORAD_CAT_ID": 36402, "ELEMENT_SET_NO": 999, "REV_AT_EPOCH": 12269, "BSTAR": 0, "MEAN_MOTION_DOT": -4.9e-07, "MEAN_MOTION_DDOT": 0}, "tle": {"line1": "1 36402U 10007C   25343.80668569 -.00000049  00000+0  00000+0 0  9990", "line2": "2 36402  65.5316 320.8726 0002788 272.0350 265.8280  2.13105924122693"}}, "geometry": {"type": "Point", "coordinates": [127.7372532094679, 26.484032483315914]}}, {"type": "Feature", "properties": {"norad_id": 37867, "name": "COSMOS 2476 (744)", "group": "glo-ops", "lat": -58.15947000793888, "lon": 31.124019456795512, "alt_km": 19103.06823081711, "timestamp": "2025-12-10T05:46:14.082836+00:00", "meta": {"OBJECT_NAME": "COSMOS 2476 (744)", "OBJECT_ID": "2011-064A", "EPOCH": "2025-12-09T09:41:55.720032", "MEAN_MOTION": 2.13101239, "ECCENTRICITY": 0.0023895, "INCLINATION": 65.1605, "RA_OF_ASC_NODE": 79.2843, "ARG_OF_PERICENTER": 233.5536, "MEAN_ANOMALY": 135.2332, "EPHEMERIS_TYPE": 0, "CLASSIFICATION_TYPE": "U", "NORAD_CAT_ID": 37867, "ELEMENT_SET_NO": 999, "REV_AT_EPOCH": 10972, "BSTAR": 0, "MEAN_MOTION_DOT": -1.4e-07, "MEAN_MOTION_DDOT": 0}, "tle": {"line1": "1 37867U 11064A   25343.40411713 -.00000014  00000+0  00000+0 0  9995", "line2": "2 37867  65.1605  79.2843 0023895 233.5536 135.2332  2.13101239109723"}}, "geometry": {"type": "Point", "coordinates": [31.124019456795512, -58.15947000793888]}}, {"type": "Feature", "properties": {"norad_id": 37868, "name": "COSMOS 2477 (745)", "group": "glo-ops", "lat": 57.85415685542224, "lon": -148.03110132636732, "alt_km": 19152.641483657084, "timestamp": "2025-12-10T05:46:14.082848+00:00", "meta": {"OBJECT_NAME": "COSMOS 2477 (745)", "OBJECT_ID": "2011-064B", "EPOCH": "2025-12-09T06:11:12.657696", "MEAN_MOTION": 2.13102656, "ECCENTRICITY": 0.0021072, "INCLINATION": 65.167, "RA_OF_ASC_NODE": 79.367, "ARG_OF_PERICENTER": 234.1716, "MEAN_ANOMALY": 203.2692, "EPHEMERIS_TYPE": 0, "CLASSIFICATION_TYPE": "U", "NORAD_CAT_ID": 37868, "ELEMENT_SET_NO": 999, "REV_AT_EPOCH": 10971, "BSTAR": 0, "MEAN_MOTION_DOT": -1.4e-07, "MEAN_MOTION_DDOT": 0}, "tle": {"line1": "1 37868U 11064B   25343.25778539 -.00000014  00000+0  00000+0 0  9991", "line2": "2 37868  65.1670  79.3670 0021072 234.1716 203.2692  2.13102656109715"}}, "geometry": {"type": "Point", "coordinates": [-148.03110132636732, 57.85415685542224]}}, {"type": "Feature", "properties": {"norad_id": 37869, "name": "COSMOS 2475 (743)", "group": "glo-ops", "lat": 56.84617112222479, "lon": 124.39662060473619, "alt_km": 19190.142127357085, "timestamp": "2025-12-10T05:46:14.082859+00:00", "meta": {"OBJECT_NAME": "COSMOS 2475 (743)", "OBJECT_ID": "2011-064C", "EPOCH": "2025-12-09T06:02:05.700768", "MEAN_MOTION": 2.13101306, "ECCENTRICITY": 0.0026081, "INCLINATION": 65.1742, "RA_OF_ASC_NODE": 79.3871, "ARG_OF_PERICENTER": 248.2695, "MEAN_ANOMALY": 140.2782, "EPHEMERIS_TYPE": 0, "CLASSIFICATION_TYPE": "U", "NORAD_CAT_ID": 37869, "ELEMENT_SET_NO": 999, "REV_AT_EPOCH": 10972, "BSTAR": 0, "MEAN_MOTION_DOT": -1.3e-07, "MEAN_MOTION_DDOT": 0}, "tle": {"line1": "1 37869U 11064C   25343.25145487 -.00000013  00000+0  00000+0 0  9991", "line2": "2 37869  65.1742  79.3871 0026081 248.2695 140.2782  2.13101306109728"}}, "geometry": {"type": "Point", "coordinates": [124.39662060473619, 56.84617112222479]}}]}